NANOSATC-BR1            
1 40024U 14033Q   26068.98267556  .00020336  00000+0  74295-3 0  9994
2 40024  98.0845  92.7804 0004644 147.6715 212.4808 15.28136801638811
STARLINK-32605          
1 61921U 24207K   26068.94757444  .00042824  00000+0  15555-2 0  9992
2 61921  42.9992 280.0992 0000440 303.3570  56.7240 15.27605453 74761
