[{"OBJECT_NAME":"NANOSATC-BR1","OBJECT_ID":"2014-033Q","EPOCH":"2026-03-09T23:35:03.168384","MEAN_MOTION":15.28136801,"ECCENTRICITY":0.00046435,"INCLINATION":98.0845,"RA_OF_ASC_NODE":92.7804,"ARG_OF_PERICENTER":147.6715,"MEAN_ANOMALY":212.4808,"EPHEMERIS_TYPE":0,"CLASSIFICATION_TYPE":"U","NORAD_CAT_ID":40024,"ELEMENT_SET_NO":999,"REV_AT_EPOCH":63881,"BSTAR":0.00074295057,"MEAN_MOTION_DOT":0.00020336,"MEAN_MOTION_DDOT":0},{"OBJECT_NAME":"STARLINK-32605","OBJECT_ID":"2024-207K","EPOCH":"2026-03-09T22:44:30.431616","MEAN_MOTION":15.27605453,"ECCENTRICITY":4.399e-5,"INCLINATION":42.9992,"RA_OF_ASC_NODE":280.0992,"ARG_OF_PERICENTER":303.357,"MEAN_ANOMALY":56.724,"EPHEMERIS_TYPE":0,"CLASSIFICATION_TYPE":"U","NORAD_CAT_ID":61921,"ELEMENT_SET_NO":999,"REV_AT_EPOCH":7476,"BSTAR":0.0015555166,"MEAN_MOTION_DOT":0.00042824,"MEAN_MOTION_DDOT":0}]
